STARLINK-36715          
1 67716U 26025Z   26051.91668981 -.01811380  89759-3 -58027-2 0  9993
2 67716  97.2704 162.6796 0001608  88.6675 159.4680 15.91127333  3214
STARLINK-36385          
1 67717U 26025AA  26051.91668981 -.00708716  15481-3 -24107-2 0  9994
2 67717  97.2703 162.6688 0001677  73.3062 149.4521 15.89786707  3217
STARLINK-36772          
1 67721U 26026A   26042.75317130 -.00000725  22934-5  00000+0 0  9999
2 67721  97.2800  95.5280 0003400 259.0800  81.2200 16.07750770    15
STARLINK-36796          
1 67722U 26026B   26042.75317130 -.00000725  22934-5  00000+0 0  9990
2 67722  97.2800  95.5280 0003400 259.0800  81.2200 16.07750770    16
STARLINK-36369          
1 67723U 26026C   26042.75317130 -.00000725  22934-5  00000+0 0  9991
2 67723  97.2800  95.5280 0003400 259.0800  81.2200 16.07750770    17
STARLINK-36752          
1 67724U 26026D   26042.75317130 -.00000725  22934-5  00000+0 0  9992
2 67724  97.2800  95.5280 0003400 259.0800  81.2200 16.07750770    18
STARLINK-36754          
1 67725U 26026E   26042.75317130 -.00000725  22934-5  00000+0 0  9993
2 67725  97.2800  95.5280 0003400 259.0800  81.2200 16.07750770    19
STARLINK-36755          
1 67726U 26026F   26042.75317130 -.00000725  22934-5  00000+0 0  9994
2 67726  97.2800  95.5280 0003400 259.0800  81.2200 16.07750770    10
STARLINK-36741          
1 67727U 26026G   26042.75317130 -.00000725  22934-5  00000+0 0  9995
2 67727  97.2800  95.5280 0003400 259.0800  81.2200 16.07750770    11
