CCSDS_OMM_VERS = 2.0
CREATION_DATE  = 
ORIGINATOR     = 

OBJECT_NAME    = STARLINK-36715
OBJECT_ID      = 2026-025Z
CENTER_NAME    = EARTH
REF_FRAME      = TEME
TIME_SYSTEM    = UTC
MEAN_ELEMENT_THEORY = SGP/SGP4

EPOCH          = 2026-02-20T22:00:01.999584
MEAN_MOTION    = 15.91127333
ECCENTRICITY   = .00016087
INCLINATION    = 97.2704
RA_OF_ASC_NODE = 162.6796
ARG_OF_PERICENTER = 88.6675
MEAN_ANOMALY   = 159.4680

EPHEMERIS_TYPE = 0
CLASSIFICATION_TYPE = U
NORAD_CAT_ID   = 67716
ELEMENT_SET_NO = 999
REV_AT_EPOCH   = 321
BSTAR          = -.58026633E-2
MEAN_MOTION_DOT = -.181138E-1
MEAN_MOTION_DDOT = .89758906E-3

CCSDS_OMM_VERS = 2.0
CREATION_DATE  = 
ORIGINATOR     = 

OBJECT_NAME    = STARLINK-36385
OBJECT_ID      = 2026-025AA
CENTER_NAME    = EARTH
REF_FRAME      = TEME
TIME_SYSTEM    = UTC
MEAN_ELEMENT_THEORY = SGP/SGP4

EPOCH          = 2026-02-20T22:00:01.999584
MEAN_MOTION    = 15.89786707
ECCENTRICITY   = .00016771
INCLINATION    = 97.2703
RA_OF_ASC_NODE = 162.6688
ARG_OF_PERICENTER = 73.3062
MEAN_ANOMALY   = 149.4521

EPHEMERIS_TYPE = 0
CLASSIFICATION_TYPE = U
NORAD_CAT_ID   = 67717
ELEMENT_SET_NO = 999
REV_AT_EPOCH   = 321
BSTAR          = -.2410667E-2
MEAN_MOTION_DOT = -.708716E-2
MEAN_MOTION_DDOT = .15480674E-3

CCSDS_OMM_VERS = 2.0
CREATION_DATE  = 
ORIGINATOR     = 

OBJECT_NAME    = STARLINK-36772
OBJECT_ID      = 2026-026A
CENTER_NAME    = EARTH
REF_FRAME      = TEME
TIME_SYSTEM    = UTC
MEAN_ELEMENT_THEORY = SGP/SGP4

EPOCH          = 2026-02-11T18:04:34.000320
MEAN_MOTION    = 16.07750770
ECCENTRICITY   = .00034
INCLINATION    = 97.2800
RA_OF_ASC_NODE = 95.5280
ARG_OF_PERICENTER = 259.0800
MEAN_ANOMALY   = 81.2200

EPHEMERIS_TYPE = 0
CLASSIFICATION_TYPE = U
NORAD_CAT_ID   = 67721
ELEMENT_SET_NO = 999
REV_AT_EPOCH   = 1
BSTAR          = 0
MEAN_MOTION_DOT = -.725E-5
MEAN_MOTION_DDOT = .2293429E-5

CCSDS_OMM_VERS = 2.0
CREATION_DATE  = 
ORIGINATOR     = 

OBJECT_NAME    = STARLINK-36796
OBJECT_ID      = 2026-026B
CENTER_NAME    = EARTH
REF_FRAME      = TEME
TIME_SYSTEM    = UTC
MEAN_ELEMENT_THEORY = SGP/SGP4

EPOCH          = 2026-02-11T18:04:34.000320
MEAN_MOTION    = 16.07750770
ECCENTRICITY   = .00034
INCLINATION    = 97.2800
RA_OF_ASC_NODE = 95.5280
ARG_OF_PERICENTER = 259.0800
MEAN_ANOMALY   = 81.2200

EPHEMERIS_TYPE = 0
CLASSIFICATION_TYPE = U
NORAD_CAT_ID   = 67722
ELEMENT_SET_NO = 999
REV_AT_EPOCH   = 1
BSTAR          = 0
MEAN_MOTION_DOT = -.725E-5
MEAN_MOTION_DDOT = .2293429E-5

CCSDS_OMM_VERS = 2.0
CREATION_DATE  = 
ORIGINATOR     = 

OBJECT_NAME    = STARLINK-36369
OBJECT_ID      = 2026-026C
CENTER_NAME    = EARTH
REF_FRAME      = TEME
TIME_SYSTEM    = UTC
MEAN_ELEMENT_THEORY = SGP/SGP4

EPOCH          = 2026-02-11T18:04:34.000320
MEAN_MOTION    = 16.07750770
ECCENTRICITY   = .00034
INCLINATION    = 97.2800
RA_OF_ASC_NODE = 95.5280
ARG_OF_PERICENTER = 259.0800
MEAN_ANOMALY   = 81.2200

EPHEMERIS_TYPE = 0
CLASSIFICATION_TYPE = U
NORAD_CAT_ID   = 67723
ELEMENT_SET_NO = 999
REV_AT_EPOCH   = 1
BSTAR          = 0
MEAN_MOTION_DOT = -.725E-5
MEAN_MOTION_DDOT = .2293429E-5

CCSDS_OMM_VERS = 2.0
CREATION_DATE  = 
ORIGINATOR     = 

OBJECT_NAME    = STARLINK-36752
OBJECT_ID      = 2026-026D
CENTER_NAME    = EARTH
REF_FRAME      = TEME
TIME_SYSTEM    = UTC
MEAN_ELEMENT_THEORY = SGP/SGP4

EPOCH          = 2026-02-11T18:04:34.000320
MEAN_MOTION    = 16.07750770
ECCENTRICITY   = .00034
INCLINATION    = 97.2800
RA_OF_ASC_NODE = 95.5280
ARG_OF_PERICENTER = 259.0800
MEAN_ANOMALY   = 81.2200

EPHEMERIS_TYPE = 0
CLASSIFICATION_TYPE = U
NORAD_CAT_ID   = 67724
ELEMENT_SET_NO = 999
REV_AT_EPOCH   = 1
BSTAR          = 0
MEAN_MOTION_DOT = -.725E-5
MEAN_MOTION_DDOT = .2293429E-5

CCSDS_OMM_VERS = 2.0
CREATION_DATE  = 
ORIGINATOR     = 

OBJECT_NAME    = STARLINK-36754
OBJECT_ID      = 2026-026E
CENTER_NAME    = EARTH
REF_FRAME      = TEME
TIME_SYSTEM    = UTC
MEAN_ELEMENT_THEORY = SGP/SGP4

EPOCH          = 2026-02-11T18:04:34.000320
MEAN_MOTION    = 16.07750770
ECCENTRICITY   = .00034
INCLINATION    = 97.2800
RA_OF_ASC_NODE = 95.5280
ARG_OF_PERICENTER = 259.0800
MEAN_ANOMALY   = 81.2200

EPHEMERIS_TYPE = 0
CLASSIFICATION_TYPE = U
NORAD_CAT_ID   = 67725
ELEMENT_SET_NO = 999
REV_AT_EPOCH   = 1
BSTAR          = 0
MEAN_MOTION_DOT = -.725E-5
MEAN_MOTION_DDOT = .2293429E-5

CCSDS_OMM_VERS = 2.0
CREATION_DATE  = 
ORIGINATOR     = 

OBJECT_NAME    = STARLINK-36755
OBJECT_ID      = 2026-026F
CENTER_NAME    = EARTH
REF_FRAME      = TEME
TIME_SYSTEM    = UTC
MEAN_ELEMENT_THEORY = SGP/SGP4

EPOCH          = 2026-02-11T18:04:34.000320
MEAN_MOTION    = 16.07750770
ECCENTRICITY   = .00034
INCLINATION    = 97.2800
RA_OF_ASC_NODE = 95.5280
ARG_OF_PERICENTER = 259.0800
MEAN_ANOMALY   = 81.2200

EPHEMERIS_TYPE = 0
CLASSIFICATION_TYPE = U
NORAD_CAT_ID   = 67726
ELEMENT_SET_NO = 999
REV_AT_EPOCH   = 1
BSTAR          = 0
MEAN_MOTION_DOT = -.725E-5
MEAN_MOTION_DDOT = .2293429E-5

CCSDS_OMM_VERS = 2.0
CREATION_DATE  = 
ORIGINATOR     = 

OBJECT_NAME    = STARLINK-36741
OBJECT_ID      = 2026-026G
CENTER_NAME    = EARTH
REF_FRAME      = TEME
TIME_SYSTEM    = UTC
MEAN_ELEMENT_THEORY = SGP/SGP4

EPOCH          = 2026-02-11T18:04:34.000320
MEAN_MOTION    = 16.07750770
ECCENTRICITY   = .00034
INCLINATION    = 97.2800
RA_OF_ASC_NODE = 95.5280
ARG_OF_PERICENTER = 259.0800
MEAN_ANOMALY   = 81.2200

EPHEMERIS_TYPE = 0
CLASSIFICATION_TYPE = U
NORAD_CAT_ID   = 67727
ELEMENT_SET_NO = 999
REV_AT_EPOCH   = 1
BSTAR          = 0
MEAN_MOTION_DOT = -.725E-5
MEAN_MOTION_DDOT = .2293429E-5

